{"type": "FeatureCollection", "features": [ {"type": "Feature", "properties": {"norad_id": 42969, "name": "SENTINEL-5P", "group": "resource", "lat": 36.77477421881024, "lon": 108.72655101085181, "alt_km": 823.949357365661, "timestamp": "2025-12-09T11:33:54.457926+00:00", "meta": {"OBJECT_NAME": "SENTINEL-5P", "OBJECT_ID": "2017-064A", "EPOCH": "2025-12-09T02:26:13.979616", "MEAN_MOTION": 14.19515962, "ECCENTRICITY": 9.57e-05, "INCLINATION": 98.778, "RA_OF_ASC_NODE": 281.7181, "ARG_OF_PERICENTER": 87.1353, "MEAN_ANOMALY": 272.9932, "EPHEMERIS_TYPE": 0, "CLASSIFICATION_TYPE": "U", "NORAD_CAT_ID": 42969, "ELEMENT_SET_NO": 999, "REV_AT_EPOCH": 42259, "BSTAR": 9.4124e-05, "MEAN_MOTION_DOT": 1.54e-06, "MEAN_MOTION_DDOT": 0}, "tle": {"line1": "1 42969U 17064A   25343.10155069  .00000154  00000+0  94124-4 0  9995", "line2": "2 42969  98.7780 281.7181 0000957  87.1353 272.9932 14.19515962422596"}}, "geometry": {"type": "Point", "coordinates": [108.72655101085181, 36.77477421881024]}}, {"type": "Feature", "properties": {"norad_id": 42987, "name": "SKYSAT-C11", "group": "resource", "lat": -19.56338751011834, "lon": -61.75884683858968, "alt_km": 430.1397703851844, "timestamp": "2025-12-09T11:33:54.457936+00:00", "meta": {"OBJECT_NAME": "SKYSAT-C11", "OBJECT_ID": "2017-068A", "EPOCH": "2025-12-09T02:56:39.095808", "MEAN_MOTION": 15.47213033, "ECCENTRICITY": 9.45e-05, "INCLINATION": 97.4144, "RA_OF_ASC_NODE": 120.5257, "ARG_OF_PERICENTER": 107.0175, "MEAN_ANOMALY": 253.1179, "EPHEMERIS_TYPE": 0, "CLASSIFICATION_TYPE": "U", "NORAD_CAT_ID": 42987, "ELEMENT_SET_NO": 999, "REV_AT_EPOCH": 45375, "BSTAR": 0.00053842, "MEAN_MOTION_DOT": 0.00027347, "MEAN_MOTION_DDOT": 0}, "tle": {"line1": "1 42987U 17068A   25343.12267472  .00027347  00000+0  53842-3 0  9997", "line2": "2 42987  97.4144 120.5257 0000945 107.0175 253.1179 15.47213033453753"}}, "geometry": {"type": "Point", "coordinates": [-61.75884683858968, -19.56338751011834]}}, {"type": "Feature", "properties": {"norad_id": 42988, "name": "SKYSAT-C10", "group": "resource", "lat": 77.82904183900627, "lon": -28.46371734307274, "alt_km": 459.1705731430302, "timestamp": "2025-12-09T11:33:54.457947+00:00", "meta": {"OBJECT_NAME": "SKYSAT-C10", "OBJECT_ID": "2017-068B", "EPOCH": "2025-12-08T21:01:23.007936", "MEAN_MOTION": 15.3193243, "ECCENTRICITY": 0.0005317, "INCLINATION": 97.4262, "RA_OF_ASC_NODE": 113.7169, "ARG_OF_PERICENTER": 114.4786, "MEAN_ANOMALY": 245.701, "EPHEMERIS_TYPE": 0, "CLASSIFICATION_TYPE": "U", "NORAD_CAT_ID": 42988, "ELEMENT_SET_NO": 999, "REV_AT_EPOCH": 45320, "BSTAR": 0.00042536, "MEAN_MOTION_DOT": 0.00013049, "MEAN_MOTION_DDOT": 0}, "tle": {"line1": "1 42988U 17068B   25342.87596074  .00013049  00000+0  42536-3 0  9994", "line2": "2 42988  97.4262 113.7169 0005317 114.4786 245.7010 15.31932430453202"}}, "geometry": {"type": "Point", "coordinates": [-28.46371734307274, 77.82904183900627]}}, {"type": "Feature", "properties": {"norad_id": 42989, "name": "SKYSAT-C9", "group": "resource", "lat": -78.11584448599889, "lon": -104.54842943248428, "alt_km": 472.528873133504, "timestamp": "2025-12-09T11:33:54.457957+00:00", "meta": {"OBJECT_NAME": "SKYSAT-C9", "OBJECT_ID": "2017-068C", "EPOCH": "2025-12-08T21:55:31.130400", "MEAN_MOTION": 15.35898767, "ECCENTRICITY": 0.0010689, "INCLINATION": 97.4192, "RA_OF_ASC_NODE": 113.1378, "ARG_OF_PERICENTER": 99.9963, "MEAN_ANOMALY": 260.2487, "EPHEMERIS_TYPE": 0, "CLASSIFICATION_TYPE": "U", "NORAD_CAT_ID": 42989, "ELEMENT_SET_NO": 999, "REV_AT_EPOCH": 45349, "BSTAR": 0.00048708, "MEAN_MOTION_DOT": 0.00016985, "MEAN_MOTION_DDOT": 0}, "tle": {"line1": "1 42989U 17068C   25342.91355475  .00016985  00000+0  48708-3 0  9997", "line2": "2 42989  97.4192 113.1378 0010689  99.9963 260.2487 15.35898767453492"}}, "geometry": {"type": "Point", "coordinates": [-104.54842943248428, -78.11584448599889]}}, {"type": "Feature", "properties": {"norad_id": 42990, "name": "SKYSAT-C8", "group": "resource", "lat": -82.30271275113857, "lon": -141.40092983464095, "alt_km": 474.9171060600456, "timestamp": "2025-12-09T11:33:54.457967+00:00", "meta": {"OBJECT_NAME": "SKYSAT-C8", "OBJECT_ID": "2017-068D", "EPOCH": "2025-12-09T02:33:55.313280", "MEAN_MOTION": 15.3279316, "ECCENTRICITY": 0.0001835, "INCLINATION": 97.4283, "RA_OF_ASC_NODE": 113.0919, "ARG_OF_PERICENTER": 3.7503, "MEAN_ANOMALY": 356.3752, "EPHEMERIS_TYPE": 0, "CLASSIFICATION_TYPE": "U", "NORAD_CAT_ID": 42990, "ELEMENT_SET_NO": 999, "REV_AT_EPOCH": 45315, "BSTAR": 0.00044914, "MEAN_MOTION_DOT": 0.00014157, "MEAN_MOTION_DDOT": 0}, "tle": {"line1": "1 42990U 17068D   25343.10689020  .00014157  00000+0  44914-3 0  9991", "line2": "2 42990  97.4283 113.0919 0001835   3.7503 356.3752 15.32793160453154"}}, "geometry": {"type": "Point", "coordinates": [-141.40092983464095, -82.30271275113857]}}, {"type": "Feature", "properties": {"norad_id": 42991, "name": "SKYSAT-C7", "group": "resource", "lat": 48.89504278622415, "lon": -56.88691621227038, "alt_km": 462.47539429333483, "timestamp": "2025-12-09T11:33:54.457977+00:00", "meta": {"OBJECT_NAME": "SKYSAT-C7", "OBJECT_ID": "2017-068E", "EPOCH": "2025-12-08T22:27:33.304032", "MEAN_MOTION": 15.32194774, "ECCENTRICITY": 0.0007802, "INCLINATION": 97.429, "RA_OF_ASC_NODE": 113.9644, "ARG_OF_PERICENTER": 68.9849, "MEAN_ANOMALY": 291.2226, "EPHEMERIS_TYPE": 0, "CLASSIFICATION_TYPE": "U", "NORAD_CAT_ID": 42991, "ELEMENT_SET_NO": 999, "REV_AT_EPOCH": 45319, "BSTAR": 0.0004292, "MEAN_MOTION_DOT": 0.00013283, "MEAN_MOTION_DDOT": 0}, "tle": {"line1": "1 42991U 17068E   25342.93580213  .00013283  00000+0  42920-3 0  9990", "line2": "2 42991  97.4290 113.9644 0007802  68.9849 291.2226 15.32194774453196"}}, "geometry": {"type": "Point", "coordinates": [-56.88691621227038, 48.89504278622415]}}, {"type": "Feature", "properties": {"norad_id": 42992, "name": "SKYSAT-C6", "group": "resource", "lat": -75.16988017577258, "lon": -94.58731320531746, "alt_km": 482.513651764777, "timestamp": "2025-12-09T11:33:54.457987+00:00", "meta": {"OBJECT_NAME": "SKYSAT-C6", "OBJECT_ID": "2017-068F", "EPOCH": "2025-12-09T02:36:17.449056", "MEAN_MOTION": 15.31369264, "ECCENTRICITY": 0.0005233, "INCLINATION": 97.4324, "RA_OF_ASC_NODE": 114.5791, "ARG_OF_PERICENTER": 92.6105, "MEAN_ANOMALY": 267.5736, "EPHEMERIS_TYPE": 0, "CLASSIFICATION_TYPE": "U", "NORAD_CAT_ID": 42992, "ELEMENT_SET_NO": 999, "REV_AT_EPOCH": 45320, "BSTAR": 0.00044253, "MEAN_MOTION_DOT": 0.00013343, "MEAN_MOTION_DDOT": 0}, "tle": {"line1": "1 42992U 17068F   25343.10853529  .00013343  00000+0  44253-3 0  9992", "line2": "2 42992  97.4324 114.5791 0005233  92.6105 267.5736 15.31369264453201"}}, "geometry": {"type": "Point", "coordinates": [-94.58731320531746, -75.16988017577258]}}, {"type": "Feature", "properties": {"norad_id": 43111, "name": "CARTOSAT-2F", "group": "resource", "lat": 33.37991744477367, "lon": -133.89458265621354, "alt_km": 505.75695509714114, "timestamp": "2025-12-09T11:33:54.457997+00:00", "meta": {"OBJECT_NAME": "CARTOSAT-2F", "OBJECT_ID": "2018-004A", "EPOCH": "2025-12-09T04:36:02.276064", "MEAN_MOTION": 15.19215809, "ECCENTRICITY": 6.53e-05, "INCLINATION": 97.4314, "RA_OF_ASC_NODE": 40.8864, "ARG_OF_PERICENTER": 144.7184, "MEAN_ANOMALY": 215.4094, "EPHEMERIS_TYPE": 0, "CLASSIFICATION_TYPE": "U", "NORAD_CAT_ID": 43111, "ELEMENT_SET_NO": 999, "REV_AT_EPOCH": 43848, "BSTAR": 0.00024396, "MEAN_MOTION_DOT": 5.069e-05, "MEAN_MOTION_DDOT": 0}, "tle": {"line1": "1 43111U 18004A   25343.19169301  .00005069  00000+0  24396-3 0  9996", "line2": "2 43111  97.4314  40.8864 0000653 144.7184 215.4094 15.19215809438486"}}, "geometry": {"type": "Point", "coordinates": [-133.89458265621354, 33.37991744477367]}}, {"type": "Feature", "properties": {"norad_id": 43259, "name": "GAOFEN-1 02", "group": "resource", "lat": 52.73661485360312, "lon": 30.50709236383701, "alt_km": 636.5673012380994, "timestamp": "2025-12-09T11:33:54.458007+00:00", "meta": {"OBJECT_NAME": "GAOFEN-1 02", "OBJECT_ID": "2018-031A", "EPOCH": "2025-12-09T04:49:03.628416", "MEAN_MOTION": 14.76469621, "ECCENTRICITY": 0.0001453, "INCLINATION": 98.0807, "RA_OF_ASC_NODE": 40.9887, "ARG_OF_PERICENTER": 225.2915, "MEAN_ANOMALY": 134.8176, "EPHEMERIS_TYPE": 0, "CLASSIFICATION_TYPE": "U", "NORAD_CAT_ID": 43259, "ELEMENT_SET_NO": 999, "REV_AT_EPOCH": 41466, "BSTAR": 0.00024408, "MEAN_MOTION_DOT": 1.647e-05, "MEAN_MOTION_DDOT": 0}, "tle": {"line1": "1 43259U 18031A   25343.20073644  .00001647  00000+0  24408-3 0  9997", "line2": "2 43259  98.0807  40.9887 0001453 225.2915 134.8176 14.76469621414669"}}, "geometry": {"type": "Point", "coordinates": [30.50709236383701, 52.73661485360312]}}, {"type": "Feature", "properties": {"norad_id": 43260, "name": "GAOFEN-1 03", "group": "resource", "lat": 10.70793478561498, "lon": -137.31352678575314, "alt_km": 643.666364004981, "timestamp": "2025-12-09T11:33:54.458018+00:00", "meta": {"OBJECT_NAME": "GAOFEN-1 03", "OBJECT_ID": "2018-031B", "EPOCH": "2025-12-09T04:17:44.208960", "MEAN_MOTION": 14.76424531, "ECCENTRICITY": 0.0002223, "INCLINATION": 98.0804, "RA_OF_ASC_NODE": 40.8441, "ARG_OF_PERICENTER": 337.4829, "MEAN_ANOMALY": 22.6283, "EPHEMERIS_TYPE": 0, "CLASSIFICATION_TYPE": "U", "NORAD_CAT_ID": 43260, "ELEMENT_SET_NO": 999, "REV_AT_EPOCH": 41465, "BSTAR": 0.00021648, "MEAN_MOTION_DOT": 1.453e-05, "MEAN_MOTION_DDOT": 0}, "tle": {"line1": "1 43260U 18031B   25343.17898390  .00001453  00000+0  21648-3 0  9996", "line2": "2 43260  98.0804  40.8441 0002223 337.4829  22.6283 14.76424531414652"}}, "geometry": {"type": "Point", "coordinates": [-137.31352678575314, 10.70793478561498]}}]}